NORAD_CAT_ID,OBJECT_NAME,OBJECT_TYPE,EPOCH,MEAN_MOTION,ECCENTRICITY,INCLINATION,RA_OF_ASC_NODE,ARG_OF_PERICENTER,MEAN_ANOMALY,BSTAR,MEAN_MOTION_DOT,MEAN_MOTION_DDOT,TLE_LINE0,TLE_LINE1,TLE_LINE2,SEMIMAJOR_AXIS,PERIOD,APOGEE,PERIGEE,DECAYED
51721.0,STARLINK-3524,PAYLOAD,2023-11-24 13:56:40,15.08841648,0.0001337,53.2165,122.5687,97.7291,262.3853,5.6488e-06,-1.98e-06,0.0,0 STARLINK-3524,1 51721U 22016H   23328.58101885 -.00000198  00000-0  56488-5 0  9996,2 51721  53.2165 122.5687 0001337  97.7291 262.3853 15.08841648 97202,6917.875,95.437,540.665,538.815,0.0
51721.0,STARLINK-3524,PAYLOAD,2023-11-24 17:07:26,15.08844651,0.0001257,53.2166,121.9735,92.2913,267.8223,2.0966e-05,4.6e-07,0.0,0 STARLINK-3524,1 51721U 22016H   23328.71349677  .00000046  00000-0  20966-4 0  9996,2 51721  53.2166 121.9735 0001257  92.2913 267.8223 15.08844651 98346,6917.866,95.437,540.601,538.862,0.0
51721.0,STARLINK-3524,PAYLOAD,2023-11-25 13:47:26,15.08842908,0.0001285,53.2168,118.1077,88.4265,271.6875,0.00019383,2.798e-05,0.0,0 STARLINK-3524,1 51721U 22016H   23329.57461527  .00002798  00000-0  19383-3 0  9996,2 51721  53.2168 118.1077 0001285  88.4265 271.6875 15.08842908 97352,6917.872,95.437,540.625,538.848,0.0
51721.0,STARLINK-3524,PAYLOAD,2023-11-25 20:08:59,15.0885787,0.0001339,53.2153,116.9173,86.5049,273.6096,0.00042606,6.503e-05,0.0,0 STARLINK-3524,1 51721U 22016H   23329.83957178  .00006503  00000-0  42606-3 0  9999,2 51721  53.2153 116.9173 0001339  86.5049 273.6096 15.08857870 97393,6917.826,95.436,540.617,538.764,0.0
51721.0,STARLINK-3524,PAYLOAD,2023-11-26 10:27:27,15.08845733,0.000155,53.2162,114.2368,94.1773,265.9397,0.00024324,3.586e-05,0.0,0 STARLINK-3524,1 51721U 22016H   23330.43573385  .00003586  00000-0  24324-3 0  9996,2 51721  53.2162 114.2368 0001550  94.1773 265.9397 15.08845733 98602,6917.863,95.437,540.8,538.656,0.0
51721.0,STARLINK-3524,PAYLOAD,2023-11-26 13:38:13,15.08843795,0.0001447,53.2158,113.6425,103.6811,256.4342,0.00016105,2.276e-05,0.0,0 STARLINK-3524,1 51721U 22016H   23330.56821341  .00002276  00000-0  16105-3 0  9991,2 51721  53.2158 113.6425 0001447 103.6811 256.4342 15.08843795 97507,6917.869,95.437,540.735,538.733,0.0
51721.0,STARLINK-3524,PAYLOAD,2023-11-26 15:13:36,15.08847462,0.0001467,53.2155,113.3457,115.3203,244.7942,0.00019305,2.786e-05,0.0,0 STARLINK-3524,1 51721U 22016H   23330.63445232  .00002786  00000-0  19305-3 0  9991,2 51721  53.2155 113.3457 0001467 115.3203 244.7942 15.08847462 97515,6917.858,95.437,540.737,538.708,0.0
51721.0,STARLINK-3524,PAYLOAD,2023-11-27 13:29:01,15.08833582,0.000153,53.2158,109.1844,111.4425,248.673,-0.00020271,-3.512e-05,0.0,0 STARLINK-3524,1 51721U 22016H   23331.56181889 -.00003512  00000-0 -20271-3 0  9993,2 51721  53.2158 109.1844 0001530 111.4425 248.6730 15.08833582 97656,6917.9,95.438,540.823,538.707,0.0
51721.0,STARLINK-3524,PAYLOAD,2023-11-27 18:15:10,15.08834938,0.0001335,53.2162,108.2926,89.3568,270.7577,-0.00014774,-2.638e-05,0.0,0 STARLINK-3524,1 51721U 22016H   23331.76054007 -.00002638  00000-0 -14774-3 0  9995,2 51721  53.2162 108.2926 0001335  89.3568 270.7577 15.08834938 98805,6917.896,95.438,540.684,538.837,0.0
51721.0,STARLINK-3524,PAYLOAD,2023-11-28 14:55:11,15.08839797,0.0001642,53.2173,104.4301,67.3468,292.7697,0.00012548,1.71e-05,0.0,0 STARLINK-3524,1 51721U 22016H   23332.62166171  .00001710  00000-0  12548-3 0  9992,2 51721  53.2173 104.4301 0001642  67.3468 292.7697 15.08839797 97813,6917.881,95.438,540.882,538.61,0.0
51721.0,STARLINK-3524,PAYLOAD,2023-11-28 18:05:57,15.08851394,0.000149,53.2183,103.8361,65.4273,294.6874,0.00032127,4.83e-05,0.0,0 STARLINK-3524,1 51721U 22016H   23332.75413729  .00004830  00000-0  32127-3 0  9991,2 51721  53.2183 103.8361 0001490  65.4273 294.6874 15.08851394 98958,6917.846,95.437,540.741,538.68,0.0
51721.0,STARLINK-3524,PAYLOAD,2023-11-29 08:24:26,15.0883674,0.000119,53.2174,101.1587,91.8443,268.2685,0.00012838,1.756e-05,0.0,0 STARLINK-3524,1 51721U 22016H   23333.35030547  .00001756  00000-0  12838-3 0  9992,2 51721  53.2174 101.1587 0001190  91.8443 268.2685 15.08836740 99044,6917.89,95.438,540.579,538.932,0.0
51721.0,STARLINK-3524,PAYLOAD,2023-11-29 14:45:58,15.08843755,0.0001421,53.2174,99.97,107.5014,252.6134,0.0002045,2.968e-05,0.0,0 STARLINK-3524,1 51721U 22016H   23333.61526191  .00002968  00000-0  20450-3 0  9991,2 51721  53.2174  99.9700 0001421 107.5014 252.6134 15.08843755 97960,6917.869,95.437,540.717,538.751,0.0
51721.0,STARLINK-3524,PAYLOAD,2023-11-29 16:21:21,15.08846393,0.0001536,53.2179,99.6746,76.94,283.1763,0.00026878,3.993e-05,0.0,0 STARLINK-3524,1 51721U 22016H   23333.68150322  .00003993  00000-0  26878-3 0  9996,2 51721  53.2179  99.6746 0001536  76.9400 283.1763 15.08846393 99091,6917.861,95.437,540.788,538.663,0.0
51721.0,STARLINK-3524,PAYLOAD,2023-11-30 08:15:13,15.08842085,0.0001583,53.2179,96.7015,78.8439,281.2731,-2.2154e-05,-6.41e-06,0.0,0 STARLINK-3524,1 51721U 22016H   23334.34390394 -.00000641  00000-0 -22154-4 0  9998,2 51721  53.2179  96.7015 0001583  78.8439 281.2731 15.08842085 99192,6917.874,95.437,540.834,538.644,0.0
51721.0,STARLINK-3524,PAYLOAD,2023-12-01 11:16:46,15.08846959,0.0001456,53.218,91.6454,79.4065,280.7091,0.0001792,2.566e-05,0.0,0 STARLINK-3524,1 51721U 22016H   23335.46998575  .00002566  00000-0  17920-3 0  9997,2 51721  53.2180  91.6454 0001456  79.4065 280.7091 15.08846959 99362,6917.859,95.437,540.731,538.717,0.0
51721.0,STARLINK-3524,PAYLOAD,2023-12-01 14:27:33,15.0884858,0.0001612,53.2173,91.0506,78.5012,281.6161,0.0002922,4.366e-05,0.0,0 STARLINK-3524,1 51721U 22016H   23335.60246535  .00004366  00000-0  29220-3 0  9991,2 51721  53.2173  91.0506 0001612  78.5012 281.6161 15.08848580 98260,6917.854,95.437,540.834,538.604,0.0
51721.0,STARLINK-3524,PAYLOAD,2023-12-02 11:07:32,15.08871097,0.000164,53.2179,87.1849,96.1033,264.0146,0.00069066,0.0001073,0.0,0 STARLINK-3524,1 51721U 22016H   23336.46357249  .00010730  00000-0  69066-3 0  9995,2 51721  53.2179  87.1849 0001640  96.1033 264.0146 15.08871097 99518,6917.785,95.436,540.785,538.516,0.0
51721.0,STARLINK-3524,PAYLOAD,2023-12-02 14:18:18,15.08868757,0.0001478,53.2162,86.5894,79.2393,280.8765,0.0005559,8.577e-05,0.0,0 STARLINK-3524,1 51721U 22016H   23336.59605147  .00008577  00000-0  55590-3 0  9995,2 51721  53.2162  86.5894 0001478  79.2393 280.8765 15.08868757 98413,6917.792,95.436,540.68,538.635,0.0
51721.0,STARLINK-3524,PAYLOAD,2023-12-03 10:58:21,15.08809186,0.0001195,53.2168,82.7234,93.0123,267.1006,-0.00056803,-9.309e-05,0.0,0 STARLINK-3524,1 51721U 22016H   23337.45719526 -.00009309  00000-0 -56803-3 0  9992,2 51721  53.2168  82.7234 0001195  93.0123 267.1006 15.08809186 99661,6917.975,95.44,540.666,539.013,0.0
51721.0,STARLINK-3524,PAYLOAD,2023-12-03 14:09:08,15.08801473,0.0001316,53.2174,82.1278,109.4243,250.6891,-0.00061762,-0.00010093,0.0,0 STARLINK-3524,1 51721U 22016H   23337.58967941 -.00010093  00000-0 -61762-3 0  9994,2 51721  53.2174  82.1278 0001316 109.4243 250.6891 15.08801473 98568,6917.998,95.44,540.774,538.953,0.0
51721.0,STARLINK-3524,PAYLOAD,2023-12-04 10:49:08,15.08843237,0.000142,53.2169,78.2623,107.4424,252.6724,0.00041018,6.247e-05,0.0,0 STARLINK-3524,1 51721U 22016H   23338.45079475  .00006247  00000-0  41018-3 0  9993,2 51721  53.2169  78.2623 0001420 107.4424 252.6724 15.08843237 99817,6917.87,95.437,540.718,538.753,0.0
51721.0,STARLINK-3524,PAYLOAD,2023-12-04 12:24:31,15.08845124,0.0001438,53.2169,77.9648,110.631,249.4836,0.00046998,7.201e-05,0.0,0 STARLINK-3524,1 51721U 22016H   23338.51703466  .00007201  00000-0  46998-3 0  9997,2 51721  53.2169  77.9648 0001438 110.6310 249.4836 15.08845124 98701,6917.865,95.437,540.725,538.735,0.0
51721.0,STARLINK-3524,PAYLOAD,2023-12-05 10:39:56,15.08848427,0.000133,53.2169,73.8025,111.8192,248.2942,0.00049751,7.641e-05,0.0,0 STARLINK-3524,1 51721U 22016H   23339.44439916  .00007641  00000-0  49751-3 0  9994,2 51721  53.2169  73.8025 0001330 111.8192 248.2942 15.08848427 99960,6917.855,95.437,540.64,538.8,0.0
51721.0,STARLINK-3524,PAYLOAD,2023-12-05 12:15:19,15.0884454,0.0001328,53.2172,73.5051,110.707,249.4064,0.00054361,8.375e-05,0.0,0 STARLINK-3524,1 51721U 22016H   23339.51063985  .00008375  00000-0  54361-3 0  9999,2 51721  53.2172  73.5051 0001328 110.7070 249.4064 15.08844540 98857,6917.867,95.437,540.65,538.813,0.0
51721.0,STARLINK-3524,PAYLOAD,2023-12-05 17:01:28,15.0884204,0.0001294,53.2171,72.6125,96.7955,263.3185,0.00077153,0.00012013,0.0,0 STARLINK-3524,1 51721U 22016H   23339.70936129  .00012013  00000-0  77153-3 0  9997,2 51721  53.2171  72.6125 0001294  96.7955 263.3185 15.08842040 98880,6917.874,95.437,540.634,538.844,0.0
51721.0,STARLINK-3524,PAYLOAD,2023-12-06 12:06:04,15.0885644,0.0002552,53.2186,69.041,151.4153,208.698,-0.00011684,-2.148e-05,0.0,0 STARLINK-3524,1 51721U 22016H   23340.50422435 -.00002148  00000-0 -11684-3 0  9994,2 51721  53.2186  69.0410 0002552 151.4153 208.6980 15.08856440100125,6917.83,95.437,541.461,537.93,0.0
51721.0,STARLINK-3524,PAYLOAD,2023-12-07 11:56:53,15.08841575,0.0001543,53.2196,64.5866,78.6458,281.4707,3.3186e-08,-2.87e-06,0.0,0 STARLINK-3524,1 51721U 22016H   23341.49783934 -.00000287  00000-0  33186-7 0  9993,2 51721  53.2196  64.5866 0001543  78.6458 281.4707 15.08841575100273,6917.876,95.437,540.808,538.673,0.0
51721.0,STARLINK-3524,PAYLOAD,2023-12-08 11:47:40,15.08838031,0.0001677,53.2195,60.1272,68.6169,291.5002,7.8318e-05,9.59e-06,0.0,0 STARLINK-3524,1 51721U 22016H   23342.49143971  .00000959  00000-0  78318-4 0  9993,2 51721  53.2195  60.1272 0001677  68.6169 291.5002 15.08838031 99305,6917.886,95.438,540.912,538.591,0.0
51721.0,STARLINK-3524,PAYLOAD,2023-12-09 10:03:03,15.08841142,0.000144,53.2191,55.9642,97.5419,262.5737,9.1945e-05,1.176e-05,0.0,0 STARLINK-3524,1 51721U 22016H   23343.41879591  .00001176  00000-0  91945-4 0  9993,2 51721  53.2191  55.9642 0001440  97.5419 262.5737 15.08841142100562,6917.877,95.437,540.738,538.746,0.0
